NORAD_CAT_ID,OBJECT_NAME,OBJECT_TYPE,EPOCH,MEAN_MOTION,ECCENTRICITY,INCLINATION,RA_OF_ASC_NODE,ARG_OF_PERICENTER,MEAN_ANOMALY,BSTAR,MEAN_MOTION_DOT,MEAN_MOTION_DDOT,TLE_LINE0,TLE_LINE1,TLE_LINE2,SEMIMAJOR_AXIS,PERIOD,APOGEE,PERIGEE,DECAYED
52635.0,STARLINK-3978,PAYLOAD,2022-07-17 20:00:01,15.73168255,0.0002491,53.2157,122.8741,24.7596,295.8935,-0.00018397,-0.00026329,0.0,0 STARLINK-3978,1 52635U 22052AP  22198.83334491 -.00026329  00000-0 -18397-3 0  9994,2 52635  53.2157 122.8741 0002491  24.7596 295.8935 15.73168255 10454,6727.986,91.535,351.527,348.175,0.0
52635.0,STARLINK-3978,PAYLOAD,2022-07-17 22:00:00,15.73167977,0.0002538,53.216,122.4619,24.4954,48.3799,-0.00029766,-0.00042137,0.0,0 STARLINK-3978,1 52635U 22052AP  22198.91667824 -.00042137  00000-0 -29766-3 0  9999,2 52635  53.2160 122.4619 0002538  24.4954  48.3799 15.73167977  1308,6727.986,91.535,351.559,348.144,0.0
52635.0,STARLINK-3978,PAYLOAD,2022-07-18 12:00:00,15.73174773,0.0002637,53.2143,119.5786,27.00800000000001,111.3436,0.0002055,0.00028289,0.0,0 STARLINK-3978,1 52635U 22052AP  22199.50001157  .00028289  00000-0  20550-3 0  9998,2 52635  53.2143 119.5786 0002637  27.0080 111.3436 15.73174773 10569,6727.967,91.535,351.606,348.05800000000005,0.0
52635.0,STARLINK-3978,PAYLOAD,2022-07-18 14:00:01,15.73160765,0.0002582,53.2143,119.1657,27.7842,222.8023,0.00057273,0.00080403,0.0,0 STARLINK-3978,1 52635U 22052AP  22199.58334491  .00080403  00000-0  57273-3 0  9994,2 52635  53.2143 119.1657 0002582  27.7842 222.8023 15.73160765  1302,6728.007,91.535,351.6090000000001,348.135,0.0
52635.0,STARLINK-3978,PAYLOAD,2022-07-18 20:00:01,15.732154800000002,0.0002529,53.2145,117.9286,30.105,197.1562,0.00035404,0.00049397,0.0,0 STARLINK-3978,1 52635U 22052AP  22199.83334491  .00049397  00000-0  35404-3 0  9991,2 52635  53.2145 117.9286 0002529  30.1050 197.1562 15.73215480 10619,6727.851,91.532,351.418,348.015,0.0
52635.0,STARLINK-3978,PAYLOAD,2022-07-18 22:00:00,15.7323593,0.0002607,53.215,117.5166,29.1527,310.3432,0.00014188,0.00019369,0.0,0 STARLINK-3978,1 52635U 22052AP  22199.91667824  .00019369  00000-0  14188-3 0  9991,2 52635  53.2150 117.5166 0002607  29.1527 310.3432 15.73235930  1305,6727.793000000002,91.531,351.412,347.904,0.0
52635.0,STARLINK-3978,PAYLOAD,2022-07-19 12:00:00,15.73251281,0.0002388,53.2145,114.6294,20.0978,25.1376,-0.00039473,-0.00055783,0.0,0 STARLINK-3978,1 52635U 22052AP  22200.50001157 -.00055783  00000-0 -39473-3 0  9996,2 52635  53.2145 114.6294 0002388  20.0978  25.1376 15.73251281 10726,6727.749,91.53,351.221,348.00699999999995,0.0
52635.0,STARLINK-3978,PAYLOAD,2022-07-19 14:00:01,15.73210107,0.0002344,53.2143,114.2166,18.4594,139.0311,0.00016071,0.00022004,0.0,0 STARLINK-3978,1 52635U 22052AP  22200.58334491  .00022004  00000-0  16071-3 0  9991,2 52635  53.2143 114.2166 0002344  18.4594 139.0311 15.73210107  1305,6727.866,91.533,351.30800000000005,348.154,0.0
52635.0,STARLINK-3978,PAYLOAD,2022-07-19 22:00:00,15.73290159,0.0002257,53.2156,112.565,19.8932,226.5097,-0.0011091,-0.00154077,0.0,0 STARLINK-3978,1 52635U 22052AP  22200.91667824 -.00154077  00000-0 -11091-2 0  9991,2 52635  53.2156 112.5650 0002257  19.8932 226.5097 15.73290159  1300,6727.638000000001,91.528,351.022,347.985,0.0
52635.0,STARLINK-3978,PAYLOAD,2022-07-20 12:00:00,15.73204048,0.0002345,53.2138,109.6802,19.8587,292.3393,0.00034227,0.0004769999999999,0.0,0 STARLINK-3978,1 52635U 22052AP  22201.50001157  .00047700  00000-0  34227-3 0  9997,2 52635  53.2138 109.6802 0002345  19.8587 292.3393 15.73204048 10874,6727.884,91.533,351.326,348.171,0.0
52635.0,STARLINK-3978,PAYLOAD,2022-07-20 14:00:01,15.73202882,0.0002275,53.2137,109.2674,20.6363,43.801,0.00043443,0.00060803,0.0,0 STARLINK-3978,1 52635U 22052AP  22201.58334491  .00060803  00000-0  43443-3 0  9994,2 52635  53.2137 109.2674 0002275  20.6363  43.8010 15.73202882  1307,6727.887,91.533,351.283,348.221,0.0
52635.0,STARLINK-3978,PAYLOAD,2022-07-20 20:00:01,15.73296101,0.0002293,53.2141,108.0306,21.9461,19.1938,-0.0011355,-0.00157704,0.0,0 STARLINK-3978,1 52635U 22052AP  22201.83334491 -.00157704  00000-0 -11355-2 0  9997,2 52635  53.2141 108.0306 0002293  21.9461  19.1938 15.73296101 10935,6727.621,91.528,351.029,347.944,0.0
52635.0,STARLINK-3978,PAYLOAD,2022-07-20 22:00:01,15.73278555,0.0002352,53.214,107.6186,21.3731,132.0861,-0.0012704,-0.00175861,0.0,0 STARLINK-3978,1 52635U 22052AP  22201.91668981 -.00175861  00000-0 -12704-2 0  9993,2 52635  53.2140 107.6186 0002352  21.3731 132.0861 15.73278555  1309,6727.670999999999,91.529,351.119,347.954,0.0
52635.0,STARLINK-3978,PAYLOAD,2022-07-21 04:00:00,15.73113971,0.0002549,53.2143,106.3827,18.5704,111.5081,-0.00022068,-0.00031368,0.0,0 STARLINK-3978,1 52635U 22052AP  22202.16667824 -.00031368  00000-0 -22068-3 0  9994,2 52635  53.2143 106.3827 0002549  18.5704 111.5081 15.73113971 10986,6728.14,91.538,351.72,348.29,0.0
52635.0,STARLINK-3978,PAYLOAD,2022-07-21 14:00:01,15.73034841,0.0002365,53.2141,104.3188,24.8777,306.2876,0.00094051,0.00132542,0.0,0 STARLINK-3978,1 52635U 22052AP  22202.58335648  .00132542  00000-0  94051-3 0  9991,2 52635  53.2141 104.3188 0002365  24.8777 306.2876 15.73034841  1307,6728.366,91.543,351.82199999999995,348.64,0.0
52635.0,STARLINK-3978,PAYLOAD,2022-07-21 20:00:01,15.73114847,0.0002452,53.2143,103.0827,27.7137,279.9584,0.00080985,0.00114184,0.0,0 STARLINK-3978,1 52635U 22052AP  22202.83334491  .00114184  00000-0  80985-3 0  9997,2 52635  53.2143 103.0827 0002452  27.7137 279.9584 15.73114847 11087,6728.138000000001,91.538,351.653,348.353,0.0
52635.0,STARLINK-3978,PAYLOAD,2022-07-21 22:00:00,15.73154825,0.0002551,53.2141,102.671,27.8711,32.004,0.00045671,0.00063846,0.0,0 STARLINK-3978,1 52635U 22052AP  22202.91667824  .00063846  00000-0  45671-3 0  9996,2 52635  53.2141 102.6710 0002551  27.8711  32.0040 15.73154825  1309,6728.024,91.536,351.605,348.173,0.0
52635.0,STARLINK-3978,PAYLOAD,2022-07-22 06:00:00,15.73207654,0.0002643,53.2135,101.0221,27.4043,121.3647,0.00046949,0.00065816,0.0,0 STARLINK-3978,1 52635U 22052AP  22203.25001157  .00065816  00000-0  46949-3 0  9993,2 52635  53.2135 101.0221 0002643  27.4043 121.3647 15.73207654  1302,6727.873000000001,91.533,351.517,347.96,0.0
52635.0,STARLINK-3978,PAYLOAD,2022-07-22 12:00:00,15.73227273,0.0002362,53.2138,99.7832,28.9427,96.5511,0.0005657,0.00079627,0.0,0 STARLINK-3978,1 52635U 22052AP  22203.50001157  .00079627  00000-0  56570-3 0  9997,2 52635  53.2138  99.7832 0002362  28.9427  96.5511 15.73227273 11196,6727.816999999999,91.532,351.272,348.093,0.0
52635.0,STARLINK-3978,PAYLOAD,2022-07-22 22:00:00,15.7334632,0.0002335999999999,53.2145,97.7218,25.3363,301.41,-0.00077788,-0.00109085,0.0,0 STARLINK-3978,1 52635U 22052AP  22203.91667824 -.00109085  00000-0 -77788-3 0  9999,2 52635  53.2145  97.7218 0002336  25.3363 301.4100 15.73346320  1300,6727.478,91.525,350.915,347.772,0.0
52635.0,STARLINK-3978,PAYLOAD,2022-07-23 12:00:00,15.73094603,0.0001953,53.217,94.8269,19.2256,13.2945,-0.0040006,-0.0052604,0.0,0 STARLINK-3978,1 52635U 22052AP  22204.50001157 -.00526040  00000-0 -40006-2 0  9992,2 52635  53.2170  94.8269 0001953  19.2256  13.2945 15.73094603 11343,6728.196,91.539,351.375,348.747,0.0
52635.0,STARLINK-3978,PAYLOAD,2022-07-23 14:00:01,15.73108335,0.0001896999999999,53.217,94.4132,27.0452,117.6996,-0.0059095,-0.00756351,0.0,0 STARLINK-3978,1 52635U 22052AP  22204.58335648 -.00756351  00000-0 -59095-2 0  9993,2 52635  53.2170  94.4132 0001897  27.0452 117.6996 15.73108335  1308,6728.156999999997,91.539,351.298,348.745,0.0
52635.0,STARLINK-3978,PAYLOAD,2022-07-23 22:00:00,15.72559445,0.0002559,53.2175,92.7623,16.9132,216.2712,-0.0085531,-0.01051704,0.0,0 STARLINK-3978,1 52635U 22052AP  22204.91667824 -.01051704  00000-0 -85531-2 0  9999,2 52635  53.2175  92.7623 0002559  16.9132 216.2712 15.72559445  1300,6729.722,91.57,353.309,349.865,0.0
52635.0,STARLINK-3978,PAYLOAD,2022-07-24 14:00:01,15.71040326,0.0002320999999999,53.2172,89.4634,14.403,33.2635,-0.0091302,-0.01052033,0.0,0 STARLINK-3978,1 52635U 22052AP  22205.58334491 -.01052033  00000-0 -91302-2 0  9993,2 52635  53.2172  89.4634 0002321  14.4030  33.2635 15.71040326  1302,6734.06,91.659,357.48800000000006,354.362,0.0
52635.0,STARLINK-3978,PAYLOAD,2022-07-24 22:00:00,15.70289698,0.0002757,53.2171,87.8194,337.6419,155.8914,-0.0095599999999999,-0.01065838,0.0,0 STARLINK-3978,1 52635U 22052AP  22205.91667824 -.01065838  00000-0 -95600-2 0  9991,2 52635  53.2171  87.8194 0002757 337.6419 155.8914 15.70289698  1305,6736.205,91.703,359.92800000000005,356.213,0.0
52635.0,STARLINK-3978,PAYLOAD,2022-07-25 14:00:01,15.68761347,0.0001088999999999,53.2173,84.5315,57.7095,244.8328,-0.010022,-0.01049272,0.0,0 STARLINK-3978,1 52635U 22052AP  22206.58334491 -.01049272  00000-0 -10022-1 0  9994,2 52635  53.2173  84.5315 0001089  57.7095 244.8328 15.68761347  1304,6740.58,91.792,363.179,361.711,0.0
52635.0,STARLINK-3978,PAYLOAD,2022-07-25 22:00:00,15.68004708,0.0001262,53.2175,82.8932,49.5143,336.1589,-0.01038,-0.01052907,0.0,0 STARLINK-3978,1 52635U 22052AP  22206.91667824 -.01052907  00000-0 -10380-1 0  9996,2 52635  53.2175  82.8932 0001262  49.5143 336.1589 15.68004708  1303,6742.748000000001,91.836,365.464,363.762,0.0
52635.0,STARLINK-3978,PAYLOAD,2022-07-26 04:00:01,15.67433978,0.0001007,53.217,81.6648,72.7028,284.7865,-0.010593,-0.0104982,0.0,0 STARLINK-3978,1 52635U 22052AP  22207.16668981 -.01049820  00000-0 -10593-1 0  9995,2 52635  53.2170  81.6648 0001007  72.7028 284.7865 15.67433978 11766,6744.385,91.87,366.929,365.571,0.0
52635.0,STARLINK-3978,PAYLOAD,2022-07-26 14:00:01,15.66484661,0.0001293,53.2172,79.6163,65.0683,124.1353,-0.011027,-0.01051191,0.0,0 STARLINK-3978,1 52635U 22052AP  22207.58334491 -.01051191  00000-0 -11027-1 0  9994,2 52635  53.2172  79.6163 0001293  65.0683 124.1353 15.66484661  1308,6747.109,91.926,369.847,368.102,0.0
